{
  "norad_id": 55675,
  "name": "STARLINK-5232",
  "history": [
    {
      "epoch": "2026-03-28T19:29:21.036192Z",
      "apogee_km": 574.4120272113187,
      "perigee_km": 569.6966004125488,
      "latitude_deg": -3.33714846745358e-05,
      "longitude_deg": -2.5112908198775674,
      "height_km": 574.5252552145736,
      "semi_major_axis_km": 6950.1913138119335,
      "eccentricity": 0.00033923,
      "inclination_deg": 69.9987,
      "raan_deg": 116.0535,
      "arg_perigee_deg": 268.9503,
      "mean_anomaly_deg": 91.1267,
      "mean_motion_rev_day": 14.9833051
    },
    {
      "epoch": "2026-03-29T05:06:09.320832Z",
      "apogee_km": 574.4620436614041,
      "perigee_km": 569.6441718786982,
      "latitude_deg": 1.4219117819952888e-05,
      "longitude_deg": -148.11716837516627,
      "height_km": 574.5020966528099,
      "semi_major_axis_km": 6950.19010777005,
      "eccentricity": 0.0003466,
      "inclination_deg": 69.9983,
      "raan_deg": 115.0436,
      "arg_perigee_deg": 269.4956,
      "mean_anomaly_deg": 90.5806,
      "mean_motion_rev_day": 14.983309
    },
    {
      "epoch": "2026-03-30T01:55:54.086304Z",
      "apogee_km": 574.4512751015991,
      "perigee_km": 569.645916780566,
      "latitude_deg": -8.487737348816354e-05,
      "longitude_deg": -103.59764735976023,
      "height_km": 574.5052425881117,
      "semi_major_axis_km": 6950.185595941082,
      "eccentricity": 0.0003457,
      "inclination_deg": 69.9984,
      "raan_deg": 112.8551,
      "arg_perigee_deg": 269.3119,
      "mean_anomaly_deg": 90.7643,
      "mean_motion_rev_day": 14.98332359
    }
  ]
}